NORAD_CAT_ID,OBJECT_NAME,OBJECT_TYPE,EPOCH,MEAN_MOTION,ECCENTRICITY,INCLINATION,RA_OF_ASC_NODE,ARG_OF_PERICENTER,MEAN_ANOMALY,BSTAR,MEAN_MOTION_DOT,MEAN_MOTION_DDOT,TLE_LINE0,TLE_LINE1,TLE_LINE2,SEMIMAJOR_AXIS,PERIOD,APOGEE,PERIGEE,DECAYED
52681.0,STARLINK-4068,PAYLOAD,2024-07-09 14:14:44,15.08845767,0.0001898,53.2204,353.9666,118.0933,242.0251,0.0002114,3.078e-05,0.0,0 STARLINK-4068,1 52681U 22053AB  24191.59356994  .00003078  00000-0  21140-3 0  9990,2 52681  53.2204 353.9666 0001898 118.0933 242.0251 15.08845767119333,6917.863,95.437,541.041,538.415,0.0
52681.0,STARLINK-4068,PAYLOAD,2024-07-09 17:25:30,15.0884314,0.0001617,53.2195,353.3748,99.0202,261.0973,3.7381e-05,3.07e-06,0.0,0 STARLINK-4068,1 52681U 22053AB  24191.72605184  .00000307  00000-0  37381-4 0  9990,2 52681  53.2195 353.3748 0001617  99.0202 261.0973 15.08843140118966,6917.871,95.437,540.854,538.617,0.0
52681.0,STARLINK-4068,PAYLOAD,2024-07-10 10:54:45,15.08841641,0.0001546,53.2196,350.1023,117.6935,242.4214,0.00019545,2.824e-05,0.0,0 STARLINK-4068,1 52681U 22053AB  24192.45469148  .00002824  00000-0  19545-3 0  9996,2 52681  53.2196 350.1023 0001546 117.6935 242.4214 15.08841641119460,6917.875,95.437,540.81,538.671,0.0
52681.0,STARLINK-4068,PAYLOAD,2024-07-10 17:16:18,15.08837769,0.0001306,53.2179,348.9172,94.1716,265.9426,0.00013381,1.842e-05,0.0,0 STARLINK-4068,1 52681U 22053AB  24192.71965484  .00001842  00000-0  13381-3 0  9990,2 52681  53.2179 348.9172 0001306  94.1716 265.9426 15.08837769119114,6917.887,95.438,540.656,538.849,0.0
52681.0,STARLINK-4068,PAYLOAD,2024-07-11 13:56:18,15.08840773,0.0001435,53.2179,345.0516,94.2056,265.91,0.00014123,1.96e-05,0.0,0 STARLINK-4068,1 52681U 22053AB  24193.58077364  .00001960  00000-0  14123-3 0  9993,2 52681  53.2179 345.0516 0001435  94.2056 265.9100 15.08840773119630,6917.878,95.438,540.736,538.75,0.0
52681.0,STARLINK-4068,PAYLOAD,2024-07-12 02:39:23,15.08849687,0.000139,53.218,342.6735,93.859,266.2561,0.00019117,2.757e-05,0.0,0 STARLINK-4068,1 52681U 22053AB  24194.11068782  .00002757  00000-0  19117-3 0  9990,2 52681  53.2180 342.6735 0001390  93.8590 266.2561 15.08849687119320,6917.851,95.437,540.677,538.754,0.0
52681.0,STARLINK-4068,PAYLOAD,2024-07-12 13:47:06,15.08833654,0.0001449,53.2188,340.5919,94.7173,265.3985,1.6076e-05,-3.2e-07,0.0,0 STARLINK-4068,1 52681U 22053AB  24194.57437721 -.00000032  00000-0  16076-4 0  9990,2 52681  53.2188 340.5919 0001449  94.7173 265.3985 15.08833654119788,6917.9,95.438,540.767,538.762,0.0
52681.0,STARLINK-4068,PAYLOAD,2024-07-12 18:33:15,15.08839761,0.000164,53.22,339.7019,101.5398,258.5778,0.00010512,1.385e-05,0.0,0 STARLINK-4068,1 52681U 22053AB  24194.77309513  .00001385  00000-0  10512-3 0  9998,2 52681  53.2200 339.7019 0001640 101.5398 258.5778 15.08839761119423,6917.881,95.438,540.881,538.612,0.0
52681.0,STARLINK-4068,PAYLOAD,2024-07-13 13:37:53,15.088332,0.0001491,53.219,336.1357,102.8283,257.2876,-4.8008e-05,-1.052e-05,0.0,0 STARLINK-4068,1 52681U 22053AB  24195.56797836 -.00001052  00000-0 -48008-4 0  9990,2 52681  53.2190 336.1357 0001491 102.8283 257.2876 15.08833200119931,6917.901,95.438,540.798,538.735,0.0
52681.0,STARLINK-4068,PAYLOAD,2024-07-13 19:59:25,15.0884761,0.00014,53.2185,334.9435,97.1425,262.9727,0.00020481,2.974e-05,0.0,0 STARLINK-4068,1 52681U 22053AB  24195.83293430  .00002974  00000-0  20481-3 0  9997,2 52681  53.2185 334.9435 0001400  97.1425 262.9727 15.08847610119581,6917.857,95.437,540.691,538.754,0.0
52681.0,STARLINK-4068,PAYLOAD,2024-07-14 13:28:40,15.0883876,0.0001318,53.2187,331.6714,86.0308,274.0835,0.00015714,2.214e-05,0.0,0 STARLINK-4068,1 52681U 22053AB  24196.56157796  .00002214  00000-0  15714-3 0  9992,2 52681  53.2187 331.6714 0001318  86.0308 274.0835 15.08838760120089,6917.884,95.438,540.661,538.837,0.0
52681.0,STARLINK-4068,PAYLOAD,2024-07-14 16:39:26,15.08841513,0.0001306,53.2178,331.0757,86.8929,273.2213,0.00028748,4.29e-05,0.0,0 STARLINK-4068,1 52681U 22053AB  24196.69405689  .00004290  00000-0  28748-3 0  9990,2 52681  53.2178 331.0757 0001306  86.8929 273.2213 15.08841513119713,6917.876,95.437,540.644,538.837,0.0
52681.0,STARLINK-4068,PAYLOAD,2024-07-15 02:11:44,15.08859932,0.0001236,53.2178,329.291,83.6676,276.4456,0.00081691,0.00012744,0.0,0 STARLINK-4068,1 52681U 22053AB  24197.09149186  .00012744  00000-0  81691-3 0  9991,2 52681  53.2178 329.2910 0001236  83.6676 276.4456 15.08859932119773,6917.819,95.436,540.54,538.829,0.0
52681.0,STARLINK-4068,PAYLOAD,2024-07-15 13:19:27,15.08843459,0.0001519,53.2173,327.2091,83.4652,276.6513,0.00078372,0.00012208,0.0,0 STARLINK-4068,1 52681U 22053AB  24197.55517786  .00012208  00000-0  78372-3 0  9994,2 52681  53.2173 327.2091 0001519  83.4652 276.6513 15.08843459119843,6917.87,95.437,540.786,538.684,0.0
52681.0,STARLINK-4068,PAYLOAD,2024-07-15 14:54:50,15.08840102,0.0001286,53.2169,326.9119,90.3604,269.7536,0.0018065,0.00028579,0.0,0 STARLINK-4068,1 52681U 22053AB  24197.62141928  .00028579  00000-0  18065-2 0  9993,2 52681  53.2169 326.9119 0001286  90.3604 269.7536 15.08840102120246,6917.88,95.438,540.635,538.855,0.0
52681.0,STARLINK-4068,PAYLOAD,2024-07-15 16:30:13,15.08841146,0.0001271,53.2167,326.6149,86.0402,274.0736,0.0019828,0.0003141,0.0,0 STARLINK-4068,1 52681U 22053AB  24197.68765939  .00031410  00000-0  19828-2 0  9999,2 52681  53.2167 326.6149 0001271  86.0402 274.0736 15.08841146120257,6917.877,95.437,540.621,538.863,0.0
52681.0,STARLINK-4068,PAYLOAD,2024-07-16 13:10:14,15.08843718,0.0001323,53.217,322.7491,91.81,268.3044,0.0013409,0.00021119,0.0,0 STARLINK-4068,1 52681U 22053AB  24198.54878092  .00021119  00000-0  13409-2 0  9994,2 52681  53.2170 322.7491 0001323  91.8100 268.3044 15.08843718119999,6917.869,95.437,540.649,538.819,0.0
52681.0,STARLINK-4068,PAYLOAD,2024-07-16 14:45:37,15.08843743,0.000141,53.217,322.4512,93.5912,266.5242,0.0013128,0.00020669,0.0,0 STARLINK-4068,1 52681U 22053AB  24198.61502080  .00020669  00000-0  13128-2 0  9990,2 52681  53.2170 322.4512 0001410  93.5912 266.5242 15.08843743120391,6917.869,95.437,540.709,538.759,0.0
52681.0,STARLINK-4068,PAYLOAD,2024-07-17 13:01:02,15.0879716,0.0001176,53.2167,318.2896,147.5845,212.5219,0.0011385,0.00017856,0.0,0 STARLINK-4068,1 52681U 22053AB  24199.54238565  .00017856  00000-0  11385-2 0  9994,2 52681  53.2167 318.2896 0001176 147.5845 212.5219 15.08797160120148,6918.011,95.44,540.69,539.063,0.0
52681.0,STARLINK-4068,PAYLOAD,2024-07-17 14:36:25,15.0879149,0.0001013,53.2171,317.9918,149.4291,210.676,0.0012781,0.00020084,0.0,0 STARLINK-4068,1 52681U 22053AB  24199.60862870  .00020084  00000-0  12781-2 0  9991,2 52681  53.2171 317.9918 0001013 149.4291 210.6760 15.08791490120544,6918.029,95.441,540.594,539.193,0.0
52681.0,STARLINK-4068,PAYLOAD,2024-07-18 12:51:50,15.08881764,0.000111,53.218,313.8315,112.5968,247.5142,0.0036916,0.00059023,0.0,0 STARLINK-4068,1 52681U 22053AB  24200.53599798  .00059023  00000-0  36916-2 0  9993,2 52681  53.2180 313.8315 0001110 112.5968 247.5142 15.08881764120299,6917.753,95.435,540.386,538.85,0.0
52681.0,STARLINK-4068,PAYLOAD,2024-07-18 14:27:13,15.08895862,0.0001105,53.2185,313.5336,115.03,245.0807,0.0040446,0.00064773,0.0,0 STARLINK-4068,1 52681U 22053AB  24200.60223484  .00064773  00000-0  40446-2 0  9998,2 52681  53.2185 313.5336 0001105 115.0300 245.0807 15.08895862120695,6917.71,95.434,540.339,538.81,0.0
52681.0,STARLINK-4068,PAYLOAD,2024-07-19 12:42:35,15.08829021,8.9e-05,53.2174,309.3724,48.7483,311.3586,0.00060356,9.328e-05,0.0,0 STARLINK-4068,1 52681U 22053AB  24201.52957769  .00009328  00000-0  60356-3 0  9998,2 52681  53.2174 309.3724 0000890  48.7483 311.3586 15.08829021120449,6917.914,95.438,540.395,539.163,0.0
52681.0,STARLINK-4068,PAYLOAD,2024-07-19 14:17:58,15.08837167,7.78e-05,53.2169,309.0697,67.7127,292.3948,0.0011599,0.00018219,0.0,0 STARLINK-4068,1 52681U 22053AB  24201.59581873  .00018219  00000-0  11599-2 0  9997,2 52681  53.2169 309.0697 0000778  67.7127 292.3948 15.08837167120844,6917.889,95.438,540.292,539.216,0.0
52681.0,STARLINK-4068,PAYLOAD,2024-07-19 23:50:17,15.08872812,8.33e-05,53.2171,307.2876,69.6122,290.496,0.0028435,0.00045298,0.0,0 STARLINK-4068,1 52681U 22053AB  24201.99325533  .00045298  00000-0  28435-2 0  9994,2 52681  53.2171 307.2876 0000833  69.6122 290.4960 15.08872812120517,6917.78,95.435,540.221,539.069,0.0
52681.0,STARLINK-4068,PAYLOAD,2024-07-20 12:33:23,15.08824772,7.41e-05,53.2166,304.9049,51.1886,308.9172,0.0033006,0.00052611,0.0,0 STARLINK-4068,1 52681U 22053AB  24202.52318681  .00052611  00000-0  33006-2 0  9997,2 52681  53.2166 304.9049 0000741  51.1886 308.9172 15.08824772120598,6917.927,95.439,540.305,539.279,0.0
52681.0,STARLINK-4068,PAYLOAD,2024-07-20 14:08:46,15.0883426,6.98e-05,53.2166,304.6082,54.5245,305.5812,0.0035523,0.00056693,0.0,0 STARLINK-4068,1 52681U 22053AB  24202.58942708  .00056693  00000-0  35523-2 0  9996,2 52681  53.2166 304.6082 0000698  54.5245 305.5812 15.08834260120990,6917.898,95.438,540.246,539.28,0.0
52681.0,STARLINK-4068,PAYLOAD,2024-07-20 23:41:05,15.08859946,7.16e-05,53.2166,302.8264,66.4504,293.6564,0.0027651,0.00044018,0.0,0 STARLINK-4068,1 52681U 22053AB  24202.98686600  .00044018  00000-0  27651-2 0  9997,2 52681  53.2166 302.8264 0000716  66.4504 293.6564 15.08859946120666,6917.819,95.436,540.18,539.189,0.0
52681.0,STARLINK-4068,PAYLOAD,2024-07-21 12:24:10,15.08838317,9.04e-05,53.217,300.4479,87.6473,272.4622,0.0016834,0.00026604,0.0,0 STARLINK-4068,1 52681U 22053AB  24203.51679259  .00026604  00000-0  16834-2 0  9991,2 52681  53.2170 300.4479 0000904  87.6473 272.4622 15.08838317120740,6917.886,95.438,540.376,539.125,0.0
52681.0,STARLINK-4068,PAYLOAD,2024-07-21 13:59:34,15.08842796,8.62e-05,53.2168,300.1505,85.5694,274.5396,0.0023056,0.00036599,0.0,0 STARLINK-4068,1 52681U 22053AB  24203.58303308  .00036599  00000-0  23056-2 0  9995,2 52681  53.2168 300.1505 0000862  85.5694 274.5396 15.08842796121141,6917.872,95.437,540.333,539.141,0.0
